{
  "type": "FeatureCollection",
  "features": [
    {
      "type": "Feature",
      "properties": {
        "norad_id": 43564,
        "name": "GSAT0221 (GALILEO 25)",
        "group": "galileo",
        "lat": -2.8574946880039445,
        "lon": -15.440534717022933,
        "alt_km": 23215.79019649598,
        "timestamp": "2025-12-27T18:38:03.741280+00:00",
        "meta_object_name": "GSAT0221 (GALILEO 25)",
        "meta_object_id": "2018-060A",
        "meta_epoch": "2025-12-24T06:17:56.044608",
        "meta_mean_motion": 1.70475708,
        "meta_eccentricity": 0.00067277,
        "meta_inclination": 57.2252,
        "meta_ra_of_asc_node": 346.5066,
        "meta_arg_of_pericenter": 286.73,
        "meta_mean_anomaly": 73.2039,
        "meta_ephemeris_type": 0,
        "meta_classification_type": "U",
        "meta_norad_cat_id": 43564,
        "meta_element_set_no": 999,
        "meta_rev_at_epoch": 4618,
        "meta_bstar": 0,
        "meta_mean_motion_dot": -6.1e-07,
        "meta_mean_motion_ddot": 0,
        "tle_line1": "1 43564U 18060A   25358.26245422 -.00000061  00000+0  00000+0 0  9993",
        "tle_line2": "2 43564  57.2252 346.5066 0006727 286.7300  73.2039  1.70475708 46187"
      },
      "geometry": {
        "type": "Point",
        "coordinates": [
          -15.440534717022933,
          -2.8574946880039445
        ]
      }
    },
    {
      "type": "Feature",
      "properties": {
        "norad_id": 43565,
        "name": "GSAT0222 (GALILEO 26)",
        "group": "galileo",
        "lat": -34.152974696525774,
        "lon": -167.68442909776473,
        "alt_km": 23214.05724860857,
        "timestamp": "2025-12-27T18:38:03.741292+00:00",
        "meta_object_name": "GSAT0222 (GALILEO 26)",
        "meta_object_id": "2018-060B",
        "meta_epoch": "2025-12-26T19:52:33.130272",
        "meta_mean_motion": 1.70475295,
        "meta_eccentricity": 0.00060151,
        "meta_inclination": 57.228,
        "meta_ra_of_asc_node": 346.4403,
        "meta_arg_of_pericenter": 268.4272,
        "meta_mean_anomaly": 91.5133,
        "meta_ephemeris_type": 0,
        "meta_classification_type": "U",
        "meta_norad_cat_id": 43565,
        "meta_element_set_no": 999,
        "meta_rev_at_epoch": 4627,
        "meta_bstar": 0,
        "meta_mean_motion_dot": -6.1e-07,
        "meta_mean_motion_ddot": 0,
        "tle_line1": "1 43565U 18060B   25360.82816123 -.00000061  00000+0  00000+0 0  9991",
        "tle_line2": "2 43565  57.2280 346.4403 0006015 268.4272  91.5133  1.70475295 46277"
      },
      "geometry": {
        "type": "Point",
        "coordinates": [
          -167.68442909776473,
          -34.152974696525774
        ]
      }
    },
    {
      "type": "Feature",
      "properties": {
        "norad_id": 43566,
        "name": "GSAT0219 (GALILEO 23)",
        "group": "galileo",
        "lat": 57.023295849480455,
        "lon": 69.50970932545839,
        "alt_km": 23231.273594900053,
        "timestamp": "2025-12-27T18:38:03.741303+00:00",
        "meta_object_name": "GSAT0219 (GALILEO 23)",
        "meta_object_id": "2018-060C",
        "meta_epoch": "2025-12-26T11:06:17.532288",
        "meta_mean_motion": 1.70475524,
        "meta_eccentricity": 0.00059076,
        "meta_inclination": 57.2273,
        "meta_ra_of_asc_node": 346.4517,
        "meta_arg_of_pericenter": 292.2386,
        "meta_mean_anomaly": 67.708,
        "meta_ephemeris_type": 0,
        "meta_classification_type": "U",
        "meta_norad_cat_id": 43566,
        "meta_element_set_no": 999,
        "meta_rev_at_epoch": 4624,
        "meta_bstar": 0,
        "meta_mean_motion_dot": -6e-07,
        "meta_mean_motion_ddot": 0,
        "tle_line1": "1 43566U 18060C   25360.46270292 -.00000060  00000+0  00000+0 0  9992",
        "tle_line2": "2 43566  57.2273 346.4517 0005907 292.2386  67.7080  1.70475524 46244"
      },
      "geometry": {
        "type": "Point",
        "coordinates": [
          69.50970932545839,
          57.023295849480455
        ]
      }
    },
    {
      "type": "Feature",
      "properties": {
        "norad_id": 43567,
        "name": "GSAT0220 (GALILEO 24)",
        "group": "galileo",
        "lat": -39.63149046835789,
        "lon": -45.8332274845601,
        "alt_km": 23209.973665497902,
        "timestamp": "2025-12-27T18:38:03.741317+00:00",
        "meta_object_name": "GSAT0220 (GALILEO 24)",
        "meta_object_id": "2018-060D",
        "meta_epoch": "2025-12-23T03:56:18.956256",
        "meta_mean_motion": 1.70475727,
        "meta_eccentricity": 0.00061193,
        "meta_inclination": 57.2279,
        "meta_ra_of_asc_node": 346.5416,
        "meta_arg_of_pericenter": 288.3355,
        "meta_mean_anomaly": 71.6054,
        "meta_ephemeris_type": 0,
        "meta_classification_type": "U",
        "meta_norad_cat_id": 43567,
        "meta_element_set_no": 999,
        "meta_rev_at_epoch": 4617,
        "meta_bstar": 0,
        "meta_mean_motion_dot": -6.3e-07,
        "meta_mean_motion_ddot": 0,
        "tle_line1": "1 43567U 18060D   25357.16410829 -.00000063  00000+0  00000+0 0  9991",
        "tle_line2": "2 43567  57.2279 346.5416 0006119 288.3355  71.6054  1.70475727 46170"
      },
      "geometry": {
        "type": "Point",
        "coordinates": [
          -45.8332274845601,
          -39.63149046835789
        ]
      }
    },
    {
      "type": "Feature",
      "properties": {
        "norad_id": 49809,
        "name": "GSAT0223 (GALILEO 27)",
        "group": "galileo",
        "lat": 33.777674170906074,
        "lon": 11.830595551467706,
        "alt_km": 23228.65588687233,
        "timestamp": "2025-12-27T18:38:03.741332+00:00",
        "meta_object_name": "GSAT0223 (GALILEO 27)",
        "meta_object_id": "2021-116A",
        "meta_epoch": "2025-12-22T17:26:14.878176",
        "meta_mean_motion": 1.70475871,
        "meta_eccentricity": 0.000441,
        "meta_inclination": 57.2174,
        "meta_ra_of_asc_node": 346.4438,
        "meta_arg_of_pericenter": 255.815,
        "meta_mean_anomaly": 286.3499,
        "meta_ephemeris_type": 0,
        "meta_classification_type": "U",
        "meta_norad_cat_id": 49809,
        "meta_element_set_no": 999,
        "meta_rev_at_epoch": 2517,
        "meta_bstar": 0,
        "meta_mean_motion_dot": -6.4e-07,
        "meta_mean_motion_ddot": 0,
        "tle_line1": "1 49809U 21116A   25356.72656109 -.00000064  00000+0  00000+0 0  9997",
        "tle_line2": "2 49809  57.2174 346.4438 0004410 255.8150 286.3499  1.70475871 25171"
      },
      "geometry": {
        "type": "Point",
        "coordinates": [
          11.830595551467706,
          33.777674170906074
        ]
      }
    },
    {
      "type": "Feature",
      "properties": {
        "norad_id": 49810,
        "name": "GSAT0224 (GALILEO 28)",
        "group": "galileo",
        "lat": 21.644956748876034,
        "lon": 151.48054070342926,
        "alt_km": 23222.66302160305,
        "timestamp": "2025-12-27T18:38:03.741343+00:00",
        "meta_object_name": "GSAT0224 (GALILEO 28)",
        "meta_object_id": "2021-116B",
        "meta_epoch": "2025-12-23T03:00:59.528736",
        "meta_mean_motion": 1.70475912,
        "meta_eccentricity": 0.00037519,
        "meta_inclination": 57.2181,
        "meta_ra_of_asc_node": 346.4317,
        "meta_arg_of_pericenter": 260.8078,
        "meta_mean_anomaly": 278.9053,
        "meta_ephemeris_type": 0,
        "meta_classification_type": "U",
        "meta_norad_cat_id": 49810,
        "meta_element_set_no": 999,
        "meta_rev_at_epoch": 2520,
        "meta_bstar": 0,
        "meta_mean_motion_dot": -6.3e-07,
        "meta_mean_motion_ddot": 0,
        "tle_line1": "1 49810U 21116B   25357.12568899 -.00000063  00000+0  00000+0 0  9991",
        "tle_line2": "2 49810  57.2181 346.4317 0003751 260.8078 278.9053  1.70475912 25202"
      },
      "geometry": {
        "type": "Point",
        "coordinates": [
          151.48054070342926,
          21.644956748876034
        ]
      }
    },
    {
      "type": "Feature",
      "properties": {
        "norad_id": 59598,
        "name": "GSAT0225 (GALILEO 29)",
        "group": "galileo",
        "lat": 26.846818645686962,
        "lon": -94.86189780401953,
        "alt_km": 23214.24926513022,
        "timestamp": "2025-12-27T18:38:03.741354+00:00",
        "meta_object_name": "GSAT0225 (GALILEO 29)",
        "meta_object_id": "2024-079A",
        "meta_epoch": "2025-12-25T18:42:53.226144",
        "meta_mean_motion": 1.70474814,
        "meta_eccentricity": 0.00021774,
        "meta_inclination": 55.0084,
        "meta_ra_of_asc_node": 105.9312,
        "meta_arg_of_pericenter": 191.4017,
        "meta_mean_anomaly": 169.7242,
        "meta_ephemeris_type": 0,
        "meta_classification_type": "U",
        "meta_norad_cat_id": 59598,
        "meta_element_set_no": 999,
        "meta_rev_at_epoch": 1036,
        "meta_bstar": 0,
        "meta_mean_motion_dot": 1.7e-07,
        "meta_mean_motion_ddot": 0,
        "tle_line1": "1 59598U 24079A   25359.77978271  .00000017  00000+0  00000+0 0  9996",
        "tle_line2": "2 59598  55.0084 105.9312 0002177 191.4017 169.7242  1.70474814 10368"
      },
      "geometry": {
        "type": "Point",
        "coordinates": [
          -94.86189780401953,
          26.846818645686962
        ]
      }
    }
  ]
}